#dP2023  9 10  0  0  0.00000000      96 __u+U IGS14 FIT  IAC
## 2279      0.00000000   900.00000000 60197 0.0000000000000
+  118   C06C07C08C09C10C11C12C13C14C16C19C20C21C22C23C24C25
+        C26C27C28C29C30C32C33C34C35C36C37C38C39C40C41C42C43
+        C44C45C46E02E03E04E05E07E08E09E10E11E12E13E14E15E18
+        E19E21E24E25E26E27E30E31E33E34E36G01G02G03G04G05G06
+        G07G08G09G10G11G12G13G14G15G16G17G18G19G20G21G22G23
+        G24G25G26G27G28G29G30G31G32J02J03J04R01R02R03R04R05
+        R07R08R09R11R12R13R14R15R16R17R18R19R20R21R22R24  0
++         7  7  7  7  7  7  7  7  7  7  6  5  6  6  6  6  6
++         6  6  6  6  6  6  6  6  6  6  6  7  6  6  6  6  6
++         6  6  6  4  4  5  4  4  4  4  5  4  5  4  4  4  5
++         5  5  4  4  4  4  4  5  4  4  5  4  6  3  3  4  3
++         4  4  3  4  3  3  4  4  4  4  4  4  4  3  4  4  4
++         4  3  4  4  4  3  4  4  4  9  9  9  8  7  7  7  7
++         7  7  7  7  7  8  7  7  7  7  7  8  8  7  7  7  0
%c M  cc GPS ccc cccc cccc cccc cccc ccccc ccccc ccccc ccccc
%c cc cc ccc ccc cccc cccc cccc cccc ccccc ccccc ccccc ccccc
%f  1.2500000  1.025000000  0.00000000000  0.000000000000000
%f  0.0000000  0.000000000  0.00000000000  0.000000000000000
%i    0    0    0    0      0      0      0      0         0
%i    0    0    0    0      0      0      0      0         0
/* INFORMATION & ANALYSIS CENTER (IAC)            FINAL DATA
/* S/V CLOCKS ARE ALIGNED TO GNSS TIME                      
/* G:C1WC2W R:C1PC2P E:C1XC5X C:C2IC6I J:C1CC2S             
/* PCV:IGS20_2274 OL/AL:FES2004  NONE     YN ORB:CoN CLK:CoN
*  2023 09 10 20 15  0.00000000
PC06  -1086.403458  33494.923211 -25408.378821     31.010316
PC07 -14943.917958  27186.555279  28562.767615    -67.291049
PC08 -15996.904704  38765.500957  -5388.052685    351.324439
PC09   4730.011296  36843.802552 -18970.918842    182.384207
PC10  -5987.049182  27989.871831  31190.213425   -174.108980
PC11 -21604.514133  -6317.670221  16544.579346    825.383440
PC12 -19658.220475 -19788.054374   -377.448166    943.955578
PC13 -10811.194072  39330.211297 -11108.020563    349.615660
PC14 -26926.921383   3647.102599   6232.762772    382.995735
PC16  -4217.659515  30691.319868 -28206.871402    -74.310936
PC19  25896.133725  -9958.409775   3117.025354   -970.452744
PC20  24546.578212   1986.316732 -13151.700517    293.696208
PC21  -8113.268437 -13799.914903  22860.442332   -966.998997
PC22  12460.569252 -16803.955474  18469.473866   -313.107436
PC23  -9598.569805  25788.045613  -4654.379365   -875.937340
PC24 -14244.693724  -9230.622118 -22152.596366    378.562194
PC25 -16384.048831  12963.697527 -18516.467409    208.472503
PC26  -4515.591457 -24184.882795 -13149.297633   -175.839271
PC27  14509.344251  22254.097893   8519.436235    197.332778
PC28   -864.839428  18973.984038  20453.294536    147.987358
PC29  17862.082358  -3849.008866 -21097.996469    172.797233
PC30  23223.944213  13248.984470  -7973.514604     -4.725624
PC32   8129.109825  13780.685295 -22859.422529   -528.960966
PC33 -25853.598517  10049.041844  -2992.745972   -962.192479
PC34 -23341.741970 -12211.706434   9217.506607    256.641843
PC35    322.743992 -18997.484287 -20459.584008    549.248388
PC36  16809.300875 -11697.423973  18979.856629   -232.458146
PC37   3356.653308  24765.473502  12458.643369   -824.688548
PC38 -19515.039192  37355.313801   3101.523048    103.943354
PC39  -7694.337075  26848.361370 -31473.745200     -4.722074
PC40 -21199.665973  20479.197936  30062.883546    -36.034759
PC41 -13114.527072  16784.604663 -17980.736746   -879.575341
PC42 -23745.419244  -3056.027736  14351.414416   -551.111825
PC43 -18488.938714   3073.815813  20670.537492     39.174563
PC44 -15151.984899 -21783.903444  -8689.461847    227.447481
PC45   9306.274873 -25962.377704   4173.274352    -24.091675
PC46  14586.209296   7884.858679  22452.404062    -83.278231
PE02  11531.129165  12186.259340  24389.853484     61.715779
PE03  22951.104293  14820.191397 -11416.183600    -54.637853
PE04 -28610.681754  -3056.114471  -6943.213705   -209.190699
PE05   3900.606951  17990.071548 -23182.863418     17.169814
PE07  17807.661230 -10413.858959  21231.482171    -73.877550
PE08  28675.933867   3394.156722   6532.141519   -144.200243
PE09 -17874.913957  10237.459959 -21255.108036   -151.819233
PE10 -14376.590294   7747.402624  24679.689437   -562.771533
PE11  -9353.854600  18562.754855  21060.703977   2904.137863
PE12 -16881.651539  -3241.317852  24092.536592   -692.537708
PE13   9684.357266 -17900.887599 -21490.516120    -19.609829
PE14  -7915.241853 -19387.199843 -18419.491650    336.652550
PE15  16869.672747   3718.372147 -24034.313299    -52.202819
PE18  24332.654351  15751.364852   7088.475075    515.909753
PE19 -21028.165792 -15818.622151  13558.870847  -1658.952309
PE21   6055.858228 -22859.467375 -17797.185027   -551.861324
PE24 -21399.764406  20465.825453    -26.649304   -314.446241
PE25  -6383.188302  22959.117758  17571.508914     -1.620626
PE26  -3471.444023 -28832.769907  -5692.169400    218.681307
PE27  21040.335778 -20807.903868   -544.103101   -146.724988
PE30  23395.168137  -6039.344526  17089.353112   -489.600498
PE31 -23460.204526   6546.201100 -16808.322902     -4.779669
PE33 -13832.429400 -23274.597532  11943.952977     -0.652157
PE34  14131.574599  22827.944067 -12491.705278    -66.344768
PE36   3063.441437  28737.161193   6407.908310   -114.212838
PG01 -14330.814843   1816.686556  21954.822197    165.818164
PG02 -16594.552770  -5180.312769  20632.506400   -555.476566
PG03 -21770.309123  10543.618176  10692.200192   -142.215116
PG04 -23451.722464   1187.908966 -12520.209978    152.138933
PG05  16813.162921   3022.879526 -20547.883838   -142.217345
PG06   5377.283111  25954.027291    600.721132    552.518689
PG07  -7658.195268  18802.802560 -16395.827187     70.901221
PG08 -26111.594458  -5502.350042   2183.857899   -141.599116
PG09 -16987.773485   8817.085351 -18516.048279    -63.261463
PG10   6191.819492 -20389.630418  15823.962651    -52.866866
PG11  12277.742945  20137.552758 -12249.231110   -362.446319
PG12  22008.674656  -6076.764510  13237.116582   -423.252946
PG13  22408.178495  13800.650734  -4555.796639    570.951929
PG14  -9682.810131  20989.458024  12953.645642    180.987435
PG15  26444.634555   2210.545377   2392.563679     76.257452
PG16 -13206.228025  -8772.572859 -21673.471790   -456.049378
PG17   -293.053028  15739.971664  21810.799425    723.649764
PG18   6288.839206 -20596.091960 -15423.139868   -412.930510
PG19   9039.433305  17203.851149  18053.017988    369.722983
PG20   9045.841889  13184.847344 -21193.377694    412.563631
PG21 -17026.164659  -8559.113715  19376.228588    149.161611
PG22  -3613.672035  19200.389538  18576.379097    124.359882
PG23  16099.222853 -20479.087781   4689.130685     66.615768
PG24  16649.344031   2712.690826  20223.183878   -315.746209
PG25  19800.443901 -17360.965517   1746.262839    467.057204
PG26  -4786.739282 -16757.872105 -20075.702388    229.119741
PG27 -21411.226367 -13181.488117  -9432.672288    -37.292696
PG28  -5150.184952 -25927.723449   2573.740118     -8.048398
PG29  17317.228102  -7053.751445 -18951.235231   -609.137648
PG30   -940.532638  24885.866454  -8728.929593   -488.941443
PG31 -10441.268255 -22973.202231  -7744.499253   -223.186653
PG32  -5262.949603 -16427.483880  20427.673409   -555.783923
PJ02 -30020.106800  29655.718434   5832.990879     -3.814579
PJ03 -25780.068568  23431.282456  28845.768488     -2.502080
PJ04 -32839.894239  23008.509894  -8127.930039     70.579367
PR01  15551.290611   7033.702347 -18965.614169     65.373758
PR02  25192.673912   -773.330310  -3643.212548    -22.434123
PR03  19992.301757  -8491.740366  13362.318614     84.985517
PR04   4067.046164 -10995.388696  22674.766639    202.287327
PR05 -14144.027141  -7839.009716  19741.939844    118.809125
PR07 -19534.462908   8682.262803 -13925.524541     64.380935
PR08  -3841.132236  11108.176530 -22590.363373    -72.486111
PR09 -13007.126918   3518.835561 -21619.793798    141.551982
PR11  -7178.321262  23803.842757   5676.011856   -159.034167
PR12   4504.703042  14427.203305  20581.893837     31.139070
PR13  12216.989720  -1339.624237  22343.383068    -39.061259
PR14  13569.783400 -18954.855778  10397.881272     25.247713
PR15   6651.224262 -23630.037062  -6921.634114     86.315308
PR16  -4263.889069 -14624.822266 -20455.717286     18.562842
PR17   7403.659182  -7743.591682 -23138.487606     16.230510
PR18  -4826.677120 -19293.285970 -15982.417973    101.278013
PR19 -13253.539623 -21682.225519  -2125.904673   -246.759299
PR20 -15863.968523 -10107.680324  17252.654305    -99.791139
PR21  -6660.499437   8595.582779  23076.712310    -37.048910
PR22   4627.220073  19989.019084  15178.883746     83.515393
PR24  16373.197129   8793.530289 -17468.168463    -23.857111
EOF
